[{"OBJECT_NAME":"COSMOS 2544 (759)","OBJECT_ID":"2019-088A","EPOCH":"2026-04-02T11:28:37.465824","MEAN_MOTION":2.13086826,"ECCENTRICITY":0.00130768,"INCLINATION":65.5087,"RA_OF_ASC_NODE":76.2399,"ARG_OF_PERICENTER":256.6381,"MEAN_ANOMALY":103.2057,"EPHEMERIS_TYPE":0,"CLASSIFICATION_TYPE":"U","NORAD_CAT_ID":44850,"ELEMENT_SET_NO":999,"REV_AT_EPOCH":4910,"BSTAR":0,"MEAN_MOTION_DOT":1.0e-8,"MEAN_MOTION_DDOT":0},{"OBJECT_NAME":"BEIDOU-3 M19 (C41)","OBJECT_ID":"2019-090A","EPOCH":"2026-04-05T04:09:50.332608","MEAN_MOTION":1.86231756,"ECCENTRICITY":0.0020306,"INCLINATION":56.4976,"RA_OF_ASC_NODE":65.2019,"ARG_OF_PERICENTER":293.9017,"MEAN_ANOMALY":248.0667,"EPHEMERIS_TYPE":0,"CLASSIFICATION_TYPE":"U","NORAD_CAT_ID":44864,"ELEMENT_SET_NO":999,"REV_AT_EPOCH":4287,"BSTAR":0,"MEAN_MOTION_DOT":-3.8e-7,"MEAN_MOTION_DDOT":0},{"OBJECT_NAME":"BEIDOU-3 M20 (C42)","OBJECT_ID":"2019-090B","EPOCH":"2026-04-02T08:21:02.410848","MEAN_MOTION":1.86231443,"ECCENTRICITY":0.00178331,"INCLINATION":56.4965,"RA_OF_ASC_NODE":65.3296,"ARG_OF_PERICENTER":305.7575,"MEAN_ANOMALY":231.4249,"EPHEMERIS_TYPE":0,"CLASSIFICATION_TYPE":"U","NORAD_CAT_ID":44865,"ELEMENT_SET_NO":999,"REV_AT_EPOCH":4280,"BSTAR":0,"MEAN_MOTION_DOT":-4.2e-7,"MEAN_MOTION_DDOT":0},{"OBJECT_NAME":"BEIDOU-3 G2 (C60)","OBJECT_ID":"2020-017A","EPOCH":"2026-04-05T02:57:21.746304","MEAN_MOTION":1.00272116,"ECCENTRICITY":0.00028459,"INCLINATION":2.7181,"RA_OF_ASC_NODE":46.1506,"ARG_OF_PERICENTER":336.9903,"MEAN_ANOMALY":294.6728,"EPHEMERIS_TYPE":0,"CLASSIFICATION_TYPE":"U","NORAD_CAT_ID":45344,"ELEMENT_SET_NO":999,"REV_AT_EPOCH":2252,"BSTAR":0,"MEAN_MOTION_DOT":-1.38e-6,"MEAN_MOTION_DDOT":0},{"OBJECT_NAME":"COSMOS 2545 (760)","OBJECT_ID":"2020-018A","EPOCH":"2026-03-31T07:51:28.166112","MEAN_MOTION":2.13102306,"ECCENTRICITY":0.000733,"INCLINATION":64.4015,"RA_OF_ASC_NODE":315.1566,"ARG_OF_PERICENTER":245.6005,"MEAN_ANOMALY":114.3786,"EPHEMERIS_TYPE":0,"CLASSIFICATION_TYPE":"U","NORAD_CAT_ID":45358,"ELEMENT_SET_NO":999,"REV_AT_EPOCH":4700,"BSTAR":0,"MEAN_MOTION_DOT":-3.4e-7,"MEAN_MOTION_DDOT":0},{"OBJECT_NAME":"BEIDOU-3 G3 (C61)","OBJECT_ID":"2020-040A","EPOCH":"2026-04-05T06:25:29.566848","MEAN_MOTION":1.00269679,"ECCENTRICITY":0.000458,"INCLINATION":2.2687,"RA_OF_ASC_NODE":67.227,"ARG_OF_PERICENTER":328.5008,"MEAN_ANOMALY":4.7695,"EPHEMERIS_TYPE":0,"CLASSIFICATION_TYPE":"U","NORAD_CAT_ID":45807,"ELEMENT_SET_NO":999,"REV_AT_EPOCH":2133,"BSTAR":0,"MEAN_MOTION_DOT":-3.51e-6,"MEAN_MOTION_DDOT":0},{"OBJECT_NAME":"GPS BIII-3  (PRN 23)","OBJECT_ID":"2020-041A","EPOCH":"2026-04-04T16:39:43.206048","MEAN_MOTION":2.00560344,"ECCENTRICITY":0.00617895,"INCLINATION":56.6255,"RA_OF_ASC_NODE":31.7951,"ARG_OF_PERICENTER":205.1546,"MEAN_ANOMALY":336.5424,"EPHEMERIS_TYPE":0,"CLASSIFICATION_TYPE":"U","NORAD_CAT_ID":45854,"ELEMENT_SET_NO":999,"REV_AT_EPOCH":4256,"BSTAR":0,"MEAN_MOTION_DOT":-8.9e-7,"MEAN_MOTION_DDOT":0},{"OBJECT_NAME":"GALAXY 30 (WAAS/PRN 135)","OBJECT_ID":"2020-056C","EPOCH":"2026-04-04T22:27:32.891040","MEAN_MOTION":1.00272177,"ECCENTRICITY":0.00024578,"INCLINATION":0.0165,"RA_OF_ASC_NODE":201.4199,"ARG_OF_PERICENTER":199.6088,"MEAN_ANOMALY":4.1053,"EPHEMERIS_TYPE":0,"CLASSIFICATION_TYPE":"U","NORAD_CAT_ID":46114,"ELEMENT_SET_NO":999,"REV_AT_EPOCH":2055,"BSTAR":0,"MEAN_MOTION_DOT":0,"MEAN_MOTION_DDOT":0},{"OBJECT_NAME":"COSMOS 2547 (705K)","OBJECT_ID":"2020-075A","EPOCH":"2026-03-27T18:17:20.941152","MEAN_MOTION":2.13100219,"ECCENTRICITY":0.00073709,"INCLINATION":64.5985,"RA_OF_ASC_NODE":195.1905,"ARG_OF_PERICENTER":232.5213,"MEAN_ANOMALY":127.4084,"EPHEMERIS_TYPE":0,"CLASSIFICATION_TYPE":"U","NORAD_CAT_ID":46805,"ELEMENT_SET_NO":999,"REV_AT_EPOCH":4217,"BSTAR":0,"MEAN_MOTION_DOT":-3.1e-7,"MEAN_MOTION_DDOT":0},{"OBJECT_NAME":"GPS BIII-4  (PRN 14)","OBJECT_ID":"2020-078A","EPOCH":"2026-04-04T23:50:48.490656","MEAN_MOTION":2.00565254,"ECCENTRICITY":0.00699327,"INCLINATION":53.9939,"RA_OF_ASC_NODE":213.7458,"ARG_OF_PERICENTER":205.1668,"MEAN_ANOMALY":166.7977,"EPHEMERIS_TYPE":0,"CLASSIFICATION_TYPE":"U","NORAD_CAT_ID":46826,"ELEMENT_SET_NO":999,"REV_AT_EPOCH":4004,"BSTAR":0,"MEAN_MOTION_DOT":5.0e-8,"MEAN_MOTION_DDOT":0},{"OBJECT_NAME":"GPS BIII-5  (PRN 11)","OBJECT_ID":"2021-054A","EPOCH":"2026-03-28T01:21:33.319296","MEAN_MOTION":2.00573996,"ECCENTRICITY":0.0023817,"INCLINATION":55.2101,"RA_OF_ASC_NODE":335.7223,"ARG_OF_PERICENTER":231.1961,"MEAN_ANOMALY":354.6747,"EPHEMERIS_TYPE":0,"CLASSIFICATION_TYPE":"U","NORAD_CAT_ID":48859,"ELEMENT_SET_NO":999,"REV_AT_EPOCH":3512,"BSTAR":0,"MEAN_MOTION_DOT":-8.8e-7,"MEAN_MOTION_DDOT":0},{"OBJECT_NAME":"QZS-1R (QZSS/PRN 196)","OBJECT_ID":"2021-096A","EPOCH":"2026-04-05T06:35:21.120864","MEAN_MOTION":1.00280796,"ECCENTRICITY":0.07500978,"INCLINATION":37.3126,"RA_OF_ASC_NODE":80.6561,"ARG_OF_PERICENTER":270.3991,"MEAN_ANOMALY":76.8352,"EPHEMERIS_TYPE":0,"CLASSIFICATION_TYPE":"U","NORAD_CAT_ID":49336,"ELEMENT_SET_NO":999,"REV_AT_EPOCH":1627,"BSTAR":0,"MEAN_MOTION_DOT":-2.4e-6,"MEAN_MOTION_DDOT":0},{"OBJECT_NAME":"GSAT0223 (GALILEO 27)","OBJECT_ID":"2021-116A","EPOCH":"2026-04-04T22:59:50.619264","MEAN_MOTION":1.70475996,"ECCENTRICITY":0.00012633,"INCLINATION":57.1835,"RA_OF_ASC_NODE":343.6546,"ARG_OF_PERICENTER":288.2502,"MEAN_ANOMALY":249.3367,"EPHEMERIS_TYPE":0,"CLASSIFICATION_TYPE":"U","NORAD_CAT_ID":49809,"ELEMENT_SET_NO":999,"REV_AT_EPOCH":2693,"BSTAR":0,"MEAN_MOTION_DOT":-9.3e-7,"MEAN_MOTION_DDOT":0},{"OBJECT_NAME":"GSAT0224 (GALILEO 28)","OBJECT_ID":"2021-116B","EPOCH":"2026-04-02T10:36:38.888064","MEAN_MOTION":1.70475826,"ECCENTRICITY":0.00010814,"INCLINATION":57.1862,"RA_OF_ASC_NODE":343.7214,"ARG_OF_PERICENTER":14.2092,"MEAN_ANOMALY":171.7867,"EPHEMERIS_TYPE":0,"CLASSIFICATION_TYPE":"U","NORAD_CAT_ID":49810,"ELEMENT_SET_NO":999,"REV_AT_EPOCH":2691,"BSTAR":0,"MEAN_MOTION_DOT":-9.7e-7,"MEAN_MOTION_DDOT":0},{"OBJECT_NAME":"COSMOS 2557 (706K)","OBJECT_ID":"2022-075A","EPOCH":"2026-04-02T02:07:57.891936","MEAN_MOTION":2.1310186,"ECCENTRICITY":0.00107854,"INCLINATION":64.3418,"RA_OF_ASC_NODE":317.1673,"ARG_OF_PERICENTER":282.9879,"MEAN_ANOMALY":76.9461,"EPHEMERIS_TYPE":0,"CLASSIFICATION_TYPE":"U","NORAD_CAT_ID":52984,"ELEMENT_SET_NO":999,"REV_AT_EPOCH":2909,"BSTAR":0,"MEAN_MOTION_DOT":-4.5e-7,"MEAN_MOTION_DDOT":0},{"OBJECT_NAME":"COSMOS 2559 (707K)","OBJECT_ID":"2022-130A","EPOCH":"2026-04-02T09:03:42.068736","MEAN_MOTION":2.13101452,"ECCENTRICITY":0.00108595,"INCLINATION":64.3149,"RA_OF_ASC_NODE":317.2428,"ARG_OF_PERICENTER":177.921,"MEAN_ANOMALY":182.137,"EPHEMERIS_TYPE":0,"CLASSIFICATION_TYPE":"U","NORAD_CAT_ID":54031,"ELEMENT_SET_NO":999,"REV_AT_EPOCH":2707,"BSTAR":0,"MEAN_MOTION_DOT":-4.6e-7,"MEAN_MOTION_DDOT":0},{"OBJECT_NAME":"COSMOS 2564 (761)","OBJECT_ID":"2022-161A","EPOCH":"2026-04-03T15:05:27.392928","MEAN_MOTION":2.13101981,"ECCENTRICITY":0.00103271,"INCLINATION":64.7399,"RA_OF_ASC_NODE":195.1849,"ARG_OF_PERICENTER":215.7841,"MEAN_ANOMALY":144.1673,"EPHEMERIS_TYPE":0,"CLASSIFICATION_TYPE":"U","NORAD_CAT_ID":54377,"ELEMENT_SET_NO":999,"REV_AT_EPOCH":2604,"BSTAR":0,"MEAN_MOTION_DOT":1.5e-7,"MEAN_MOTION_DDOT":0}]
